OBJECT_NAME,OBJECT_ID,EPOCH,MEAN_MOTION,ECCENTRICITY,INCLINATION,RA_OF_ASC_NODE,ARG_OF_PERICENTER,MEAN_ANOMALY,EPHEMERIS_TYPE,CLASSIFICATION_TYPE,NORAD_CAT_ID,ELEMENT_SET_NO,REV_AT_EPOCH,BSTAR,MEAN_MOTION_DOT,MEAN_MOTION_DDOT
POLYITAN-1,2014-033AJ,2026-07-14T15:35:08.995488,15.34206784,.00079745,98.0932,224.5272,65.7523,294.4550,0,U,40042,999,65780,.33508604E-3,.11018E-3,0
TIGRISAT,2014-033AK,2026-07-14T08:00:57.568032,14.85248130,.00486985,97.7862,344.7296,347.1881,12.8092,0,U,40043,999,64965,.95872198E-4,.784E-5,0
AEROCUBE 6A,2014-033AM,2026-07-14T09:44:56.486976,14.98338309,.003637,97.7242,2.0715,283.7155,76.0019,0,U,40045,999,65069,.26300991E-3,.3113E-4,0
AEROCUBE 6B,2014-033AN,2026-07-14T17:10:30.929664,14.99795542,.00380379,97.7198,2.2244,271.7772,87.9094,0,U,40046,999,65088,.2110975E-3,.2588E-4,0
CANX-4,2014-034C,2026-07-14T21:57:10.727136,14.81310856,.00114302,98.3084,72.2412,283.8407,76.1532,0,U,40055,999,64863,.62046537E-4,.427E-5,0
CANX-5,2014-034D,2026-07-14T15:25:22.892448,14.81327975,.0011436,98.3086,72.0044,285.0734,74.9212,0,U,40056,999,63940,.63259519E-4,.437E-5,0
UKUBE-1,2014-037F,2026-07-14T22:20:29.540544,15.13947752,.00032879,98.4241,202.1270,88.5129,271.6477,0,U,40074,999,65275,.22943713E-3,.408E-4,0
BRITE-PL2 (HEWELIUSZ),2014-049B,2026-07-14T21:19:12.934560,14.94686767,.00143636,97.9120,308.1065,23.2614,336.9253,0,U,40119,999,64558,.54623313E-4,.534E-5,0
AEROCUBE 5C,2015-058B,2026-07-14T07:49:42.510144,14.91572903,.01322819,64.7652,178.1530,52.7587,308.5506,0,U,40965,999,36970,.1636215E-3,.1764E-4,0
AEROCUBE 7,2015-058C,2026-07-14T12:17:09.870720,14.95909907,.01220119,64.7610,159.2159,51.0141,310.1765,0,U,40966,999,37004,.23038978E-3,.2819E-4,0
FOX-1A (AO-85),2015-058D,2026-07-14T17:13:50.205216,14.91086579,.01323215,64.7725,193.4176,45.9898,315.2028,0,U,40967,999,11767,.15661767E-3,.1658E-4,0
SINOD-D 1,2015-058E,2026-07-14T08:28:14.313216,14.96082878,.01209938,64.7732,173.8274,42.4784,318.5615,0,U,40968,999,12072,.2266524E-3,.2777E-4,0
SNAP-3 ALICE,2015-058G,2026-07-14T20:48:25.008768,15.67150797,.0024513,64.7493,7.7364,348.4284,11.6299,0,U,40970,999,12121,.79879163E-3,.88083E-3,0
LMRST-SAT,2015-058H,2026-07-14T09:53:14.571744,14.90700627,.01338389,64.7731,190.7587,48.1094,313.1343,0,U,40971,999,11761,.15301478E-3,.1604E-4,0
SNAP-3 EDDIE,2015-058J,2026-07-14T20:02:08.181024,15.68535960,.00253982,64.7403,358.3612,350.9380,9.1307,0,U,40972,999,12335,.84166289E-3,.98503E-3,0
PROPCUBE 3,2015-058K,2026-07-14T21:58:41.398752,14.94414800,.01257543,64.7669,165.8900,49.1102,312.0824,0,U,40973,999,11894,.20246035E-3,.2374E-4,0
BISONSAT,2015-058L,2026-07-14T22:14:51.588672,15.16928037,.00821011,64.7585,83.9055,35.9744,324.6868,0,U,40974,999,11982,.39085612E-3,.8239E-4,0
SNAP-3 JIMI,2015-058M,2026-07-14T05:07:33.956544,15.02600450,.01077872,64.7645,134.2428,44.6929,316.2812,0,U,40975,999,11828,.30025585E-3,.436E-4,0
PROPCUBE 1 (FLORA),2015-058N,2026-07-14T09:24:21.882816,14.89325455,.01324163,64.7718,210.9135,50.3966,310.8748,0,U,40976,999,12031,.1286528E-3,.1263E-4,0
SINOD-D 3,2015-058P,2026-07-14T08:23:16.531296,14.94169664,.01209767,64.7701,190.9882,47.4631,313.6620,0,U,40977,999,11881,.19838367E-3,.2279E-4,0
RAVAN,2016-067B,2026-07-14T16:41:31.434144,15.57429417,.00021589,97.9847,88.5008,219.1312,140.9786,0,U,41849,999,53197,.48790262E-3,.35769E-3,0
CELTEE 1,2016-067C,2026-07-14T14:18:20.720160,15.19937383,.0002329,98.0636,64.0325,111.0586,249.0896,0,U,41850,999,53004,.13972E-3,.2925E-4,0
OPTICUBE 04,2016-067D,2026-07-14T15:37:39.998496,15.09770833,.00162058,98.0674,49.3659,29.5786,330.6355,0,U,41851,999,52931,.69548105E-4,.1054E-4,0
AEROCUBE 8D,2016-067E,2026-07-14T09:26:18.387168,15.24763137,.00046291,98.0647,67.6366,58.5584,301.6104,0,U,41852,999,53021,.18302081E-3,.4453E-4,0
AEROCUBE 8C,2016-067F,2026-07-14T14:39:15.433056,15.25019050,.0004333,98.0521,65.0631,343.7365,16.3731,0,U,41853,999,53024,.16881E-3,.4132E-4,0
CORVUS BC2,2017-042X,2026-07-14T21:28:09.634944,15.06455740,.00134824,97.4091,356.1739,24.0992,336.0864,0,U,42846,999,49123,.86752439E-4,.1222E-4,0
CORVUS BC1,2017-042Y,2026-07-14T21:16:00.400800,15.06618518,.00116976,97.4120,356.9976,1.3518,358.7739,0,U,42847,999,49126,.87249176E-4,.1235E-4,0
MAKERSAT 0,2017-073D,2026-07-14T14:28:35.203872,15.32992920,.0105407,97.4584,78.3470,174.3522,185.8937,0,U,43016,999,47066,.3073E-3,.11617E-3,0
SIRION PATHFINDER-2,2018-099B,2026-07-14T17:31:18.146496,15.14775345,.00084046,97.4239,244.1345,193.1318,166.9696,0,U,43759,999,41679,.12343348E-3,.2226E-4,0
CORVUS BC4,2018-099K,2026-07-14T20:10:05.566944,15.12700869,.00064978,97.4052,238.0123,262.4362,97.6132,0,U,43767,999,41658,.11873496E-3,.2016E-4,0
